{
    "links": {
        "self": "http://www.neowsapp.com/rest/v1/neo/3734559?api_key=iIulBulltgU6a56xZRHN4H3l9WmuAYTsLGpBGhQ2"
    },
    "id": "3734559",
    "neo_reference_id": "3734559",
    "name": "(2015 VK105)",
    "designation": "2015 VK105",
    "nasa_jpl_url": "http://ssd.jpl.nasa.gov/sbdb.cgi?sstr=3734559",
    "absolute_magnitude_h": 23.7,
    "estimated_diameter": {
        "kilometers": {
            "estimated_diameter_min": 0.0483676488,
            "estimated_diameter_max": 0.1081533507
        },
        "meters": {
            "estimated_diameter_min": 48.3676488219,
            "estimated_diameter_max": 108.1533506775
        },
        "miles": {
            "estimated_diameter_min": 0.0300542543,
            "estimated_diameter_max": 0.0672033557
        },
        "feet": {
            "estimated_diameter_min": 158.6865169607,
            "estimated_diameter_max": 354.8338390368
        }
    },
    "is_potentially_hazardous_asteroid": false,
    "close_approach_data": [
        {
            "close_approach_date": "2015-12-19",
            "close_approach_date_full": "2015-Dec-19 17:12",
            "epoch_date_close_approach": 1450545120000,
            "relative_velocity": {
                "kilometers_per_second": "4.675278115",
                "kilometers_per_hour": "16831.001214134",
                "miles_per_hour": "10458.1296155268"
            },
            "miss_distance": {
                "astronomical": "0.1385788405",
                "lunar": "53.9071689545",
                "kilometers": "20731099.365869735",
                "miles": "12881707.813222943"
            },
            "orbiting_body": "Earth"
        },
        {
            "close_approach_date": "2053-12-30",
            "close_approach_date_full": "2053-Dec-30 09:19",
            "epoch_date_close_approach": 2650699140000,
            "relative_velocity": {
                "kilometers_per_second": "11.369059956",
                "kilometers_per_hour": "40928.6158414787",
                "miles_per_hour": "25431.450215501"
            },
            "miss_distance": {
                "astronomical": "0.4162894676",
                "lunar": "161.9366028964",
                "kilometers": "62276017.656394012",
                "miles": "38696522.9900688856"
            },
            "orbiting_body": "Earth"
        },
        {
            "close_approach_date": "2056-12-17",
            "close_approach_date_full": "2056-Dec-17 18:33",
            "epoch_date_close_approach": 2744303580000,
            "relative_velocity": {
                "kilometers_per_second": "4.594785247",
                "kilometers_per_hour": "16541.2268890865",
                "miles_per_hour": "10278.0751189438"
            },
            "miss_distance": {
                "astronomical": "0.1581373384",
                "lunar": "61.5154246376",
                "kilometers": "23657008.992109208",
                "miles": "14699783.7496667504"
            },
            "orbiting_body": "Earth"
        },
        {
            "close_approach_date": "2094-12-30",
            "close_approach_date_full": "2094-Dec-30 04:37",
            "epoch_date_close_approach": 3944522220000,
            "relative_velocity": {
                "kilometers_per_second": "9.9596588059",
                "kilometers_per_hour": "35854.7717012422",
                "miles_per_hour": "22278.7607829191"
            },
            "miss_distance": {
                "astronomical": "0.3555726721",
                "lunar": "138.3177694469",
                "kilometers": "53192914.376368427",
                "miles": "33052544.3266292126"
            },
            "orbiting_body": "Earth"
        }
    ],
    "orbital_data": {
        "orbit_id": "14",
        "orbit_determination_date": "2017-04-06 08:30:41",
        "first_observation_date": "2015-11-09",
        "last_observation_date": "2016-02-05",
        "data_arc_in_days": 88,
        "observations_used": 52,
        "orbit_uncertainty": "6",
        "minimum_orbit_intersection": ".139803",
        "jupiter_tisserand_invariant": "3.657",
        "epoch_osculation": "2459000.5",
        "eccentricity": ".4522659148076153",
        "semi_major_axis": "2.046437839780849",
        "inclination": "5.162697966694908",
        "ascending_node_longitude": "282.3564285111319",
        "orbital_period": "1069.291866012877",
        "perihelion_distance": "1.120903758075443",
        "perihelion_argument": "162.4626988346643",
        "aphelion_distance": "2.971971921486255",
        "perihelion_time": "2459511.739247563052",
        "mean_anomaly": "187.8803617865711",
        "mean_motion": ".3366714097829533",
        "equinox": "J2000",
        "orbit_class": {
            "orbit_class_type": "AMO",
            "orbit_class_description": "Near-Earth asteroid orbits similar to that of 1221 Amor",
            "orbit_class_range": "1.017 AU < q (perihelion) < 1.3 AU"
        }
    },
    "is_sentry_object": false
}